{
  "type": "FeatureCollection",
  "features": [
    {
      "type": "Feature",
      "properties": {
        "norad_id": 33972,
        "name": "COSMOS 2251 DEB",
        "group": "cosmos-2251-debris",
        "lat": 72.47642683443327,
        "lon": -54.09822398279366,
        "alt_km": 775.1147376438257,
        "timestamp": "2025-12-12T09:49:09.125150+00:00",
        "meta_object_name": "COSMOS 2251 DEB",
        "meta_object_id": "1993-036FF",
        "meta_epoch": "2025-12-11T00:38:11.538816",
        "meta_mean_motion": 14.36201122,
        "meta_eccentricity": 0.01232315,
        "meta_inclination": 73.9948,
        "meta_ra_of_asc_node": 193.8194,
        "meta_arg_of_pericenter": 1.925,
        "meta_mean_anomaly": 148.1574,
        "meta_ephemeris_type": 0,
        "meta_classification_type": "U",
        "meta_norad_cat_id": 33972,
        "meta_element_set_no": 999,
        "meta_rev_at_epoch": 87049,
        "meta_bstar": 0.0015405762,
        "meta_mean_motion_dot": 4.877e-05,
        "meta_mean_motion_ddot": 0,
        "tle_line1": "1 33972U 93036FF  25345.02652244  .00004877  00000+0  15406-2 0  9992",
        "tle_line2": "2 33972  73.9948 193.8194 0123231   1.9250 148.1574 14.36201122870490"
      },
      "geometry": {
        "type": "Point",
        "coordinates": [
          -54.09822398279366,
          72.47642683443327
        ]
      }
    },
    {
      "type": "Feature",
      "properties": {
        "norad_id": 33973,
        "name": "COSMOS 2251 DEB",
        "group": "cosmos-2251-debris",
        "lat": -14.628869210054795,
        "lon": -72.19657546932991,
        "alt_km": 743.0319199046507,
        "timestamp": "2025-12-12T09:49:09.125160+00:00",
        "meta_object_name": "COSMOS 2251 DEB",
        "meta_object_id": "1993-036FG",
        "meta_epoch": "2025-12-11T14:44:00.446784",
        "meta_mean_motion": 14.45388996,
        "meta_eccentricity": 0.004731,
        "meta_inclination": 74.0082,
        "meta_ra_of_asc_node": 104.9948,
        "meta_arg_of_pericenter": 283.6155,
        "meta_mean_anomaly": 95.7681,
        "meta_ephemeris_type": 0,
        "meta_classification_type": "U",
        "meta_norad_cat_id": 33973,
        "meta_element_set_no": 999,
        "meta_rev_at_epoch": 88584,
        "meta_bstar": 0.00025205547,
        "meta_mean_motion_dot": 8.71e-06,
        "meta_mean_motion_ddot": 0,
        "tle_line1": "1 33973U 93036FG  25345.61389406  .00000871  00000+0  25206-3 0  9995",
        "tle_line2": "2 33973  74.0082 104.9948 0047310 283.6155  95.7681 14.45388996885844"
      },
      "geometry": {
        "type": "Point",
        "coordinates": [
          -72.19657546932991,
          -14.628869210054795
        ]
      }
    },
    {
      "type": "Feature",
      "properties": {
        "norad_id": 33975,
        "name": "COSMOS 2251 DEB",
        "group": "cosmos-2251-debris",
        "lat": -8.891554977396881,
        "lon": -92.35900877570617,
        "alt_km": 773.0995420283161,
        "timestamp": "2025-12-12T09:49:09.125171+00:00",
        "meta_object_name": "COSMOS 2251 DEB",
        "meta_object_id": "1993-036FJ",
        "meta_epoch": "2025-12-11T08:54:25.516224",
        "meta_mean_motion": 14.00521461,
        "meta_eccentricity": 0.0191329,
        "meta_inclination": 73.8024,
        "meta_ra_of_asc_node": 86.8585,
        "meta_arg_of_pericenter": 219.9477,
        "meta_mean_anomaly": 138.7449,
        "meta_ephemeris_type": 0,
        "meta_classification_type": "U",
        "meta_norad_cat_id": 33975,
        "meta_element_set_no": 999,
        "meta_rev_at_epoch": 85810,
        "meta_bstar": 0.0011796959,
        "meta_mean_motion_dot": 2.027e-05,
        "meta_mean_motion_ddot": 0,
        "tle_line1": "1 33975U 93036FJ  25345.37112866  .00002027  00000+0  11797-2 0  9998",
        "tle_line2": "2 33975  73.8024  86.8585 0191329 219.9477 138.7449 14.00521461858109"
      },
      "geometry": {
        "type": "Point",
        "coordinates": [
          -92.35900877570617,
          -8.891554977396881
        ]
      }
    },
    {
      "type": "Feature",
      "properties": {
        "norad_id": 33980,
        "name": "COSMOS 2251 DEB",
        "group": "cosmos-2251-debris",
        "lat": -40.62172212196916,
        "lon": 45.79918785123445,
        "alt_km": 711.3533286123484,
        "timestamp": "2025-12-12T09:49:09.125181+00:00",
        "meta_object_name": "COSMOS 2251 DEB",
        "meta_object_id": "1993-036FP",
        "meta_epoch": "2025-12-11T11:01:22.569600",
        "meta_mean_motion": 14.58640756,
        "meta_eccentricity": 0.00287631,
        "meta_inclination": 74.0216,
        "meta_ra_of_asc_node": 61.836,
        "meta_arg_of_pericenter": 207.3253,
        "meta_mean_anomaly": 164.1222,
        "meta_ephemeris_type": 0,
        "meta_classification_type": "U",
        "meta_norad_cat_id": 33980,
        "meta_element_set_no": 999,
        "meta_rev_at_epoch": 88776,
        "meta_bstar": 0.0013410839,
        "meta_mean_motion_dot": 6.259e-05,
        "meta_mean_motion_ddot": 0,
        "tle_line1": "1 33980U 93036FP  25345.45928900  .00006259  00000+0  13411-2 0  9993",
        "tle_line2": "2 33980  74.0216  61.8360 0028763 207.3253 164.1222 14.58640756887767"
      },
      "geometry": {
        "type": "Point",
        "coordinates": [
          45.79918785123445,
          -40.62172212196916
        ]
      }
    },
    {
      "type": "Feature",
      "properties": {
        "norad_id": 33982,
        "name": "COSMOS 2251 DEB",
        "group": "cosmos-2251-debris",
        "lat": 8.846915181895165,
        "lon": 178.01830429358168,
        "alt_km": 724.4826796622565,
        "timestamp": "2025-12-12T09:49:09.125191+00:00",
        "meta_object_name": "COSMOS 2251 DEB",
        "meta_object_id": "1993-036FR",
        "meta_epoch": "2025-12-12T02:43:19.994304",
        "meta_mean_motion": 14.60207723,
        "meta_eccentricity": 0.007504,
        "meta_inclination": 74.071,
        "meta_ra_of_asc_node": 1.1291,
        "meta_arg_of_pericenter": 45.8034,
        "meta_mean_anomaly": 10.3578,
        "meta_ephemeris_type": 0,
        "meta_classification_type": "U",
        "meta_norad_cat_id": 33982,
        "meta_element_set_no": 999,
        "meta_rev_at_epoch": 89150,
        "meta_bstar": 0.00061994,
        "meta_mean_motion_dot": 3.08e-05,
        "meta_mean_motion_ddot": 0,
        "tle_line1": "1 33982U 93036FR  25346.11342586  .00003080  00000+0  61994-3 0  9998",
        "tle_line2": "2 33982  74.0710   1.1291 0075040  45.8034  10.3578 14.60207723891509"
      },
      "geometry": {
        "type": "Point",
        "coordinates": [
          178.01830429358168,
          8.846915181895165
        ]
      }
    },
    {
      "type": "Feature",
      "properties": {
        "norad_id": 33983,
        "name": "COSMOS 2251 DEB",
        "group": "cosmos-2251-debris",
        "lat": 62.16796834900465,
        "lon": -65.1334323492141,
        "alt_km": 728.2330288965923,
        "timestamp": "2025-12-12T09:49:09.125202+00:00",
        "meta_object_name": "COSMOS 2251 DEB",
        "meta_object_id": "1993-036FS",
        "meta_epoch": "2025-12-11T22:25:45.660000",
        "meta_mean_motion": 14.50665191,
        "meta_eccentricity": 0.0021347,
        "meta_inclination": 74.0494,
        "meta_ra_of_asc_node": 148.5579,
        "meta_arg_of_pericenter": 251.6343,
        "meta_mean_anomaly": 264.1756,
        "meta_ephemeris_type": 0,
        "meta_classification_type": "U",
        "meta_norad_cat_id": 33983,
        "meta_element_set_no": 999,
        "meta_rev_at_epoch": 88617,
        "meta_bstar": 0.000894,
        "meta_mean_motion_dot": 3.495e-05,
        "meta_mean_motion_ddot": 0,
        "tle_line1": "1 33983U 93036FS  25345.93455625  .00003495  00000+0  89400-3 0  9999",
        "tle_line2": "2 33983  74.0494 148.5579 0021347 251.6343 264.1756 14.50665191886175"
      },
      "geometry": {
        "type": "Point",
        "coordinates": [
          -65.1334323492141,
          62.16796834900465
        ]
      }
    },
    {
      "type": "Feature",
      "properties": {
        "norad_id": 33984,
        "name": "COSMOS 2251 DEB",
        "group": "cosmos-2251-debris",
        "lat": -19.74660035149799,
        "lon": 173.6485396082239,
        "alt_km": 661.6927412377609,
        "timestamp": "2025-12-12T09:49:09.125212+00:00",
        "meta_object_name": "COSMOS 2251 DEB",
        "meta_object_id": "1993-036FT",
        "meta_epoch": "2025-12-12T02:38:31.452864",
        "meta_mean_motion": 14.66355028,
        "meta_eccentricity": 0.0023188,
        "meta_inclination": 74.0099,
        "meta_ra_of_asc_node": 348.3175,
        "meta_arg_of_pericenter": 186.7205,
        "meta_mean_anomaly": 235.6938,
        "meta_ephemeris_type": 0,
        "meta_classification_type": "U",
        "meta_norad_cat_id": 33984,
        "meta_element_set_no": 999,
        "meta_rev_at_epoch": 89057,
        "meta_bstar": 0.0012536,
        "meta_mean_motion_dot": 6.928e-05,
        "meta_mean_motion_ddot": 0,
        "tle_line1": "1 33984U 93036FT  25346.11008626  .00006928  00000+0  12536-2 0  9995",
        "tle_line2": "2 33984  74.0099 348.3175 0023188 186.7205 235.6938 14.66355028890575"
      },
      "geometry": {
        "type": "Point",
        "coordinates": [
          173.6485396082239,
          -19.74660035149799
        ]
      }
    }
  ]
}